{
    "links": {
        "self": "http://www.neowsapp.com/rest/v1/neo/3840849?api_key=iIulBulltgU6a56xZRHN4H3l9WmuAYTsLGpBGhQ2"
    },
    "id": "3840849",
    "neo_reference_id": "3840849",
    "name": "(2019 GU3)",
    "designation": "2019 GU3",
    "nasa_jpl_url": "http://ssd.jpl.nasa.gov/sbdb.cgi?sstr=3840849",
    "absolute_magnitude_h": 23.7,
    "estimated_diameter": {
        "kilometers": {
            "estimated_diameter_min": 0.0483676488,
            "estimated_diameter_max": 0.1081533507
        },
        "meters": {
            "estimated_diameter_min": 48.3676488219,
            "estimated_diameter_max": 108.1533506775
        },
        "miles": {
            "estimated_diameter_min": 0.0300542543,
            "estimated_diameter_max": 0.0672033557
        },
        "feet": {
            "estimated_diameter_min": 158.6865169607,
            "estimated_diameter_max": 354.8338390368
        }
    },
    "is_potentially_hazardous_asteroid": false,
    "close_approach_data": [
        {
            "close_approach_date": "2019-05-13",
            "close_approach_date_full": "2019-May-13 00:36",
            "epoch_date_close_approach": 1557707760000,
            "relative_velocity": {
                "kilometers_per_second": "12.0160800198",
                "kilometers_per_hour": "43257.8880714402",
                "miles_per_hour": "26878.7693963902"
            },
            "miss_distance": {
                "astronomical": "0.0781001977",
                "lunar": "30.3809769053",
                "kilometers": "11683623.222498899",
                "miles": "7259866.8259628462"
            },
            "orbiting_body": "Earth"
        },
        {
            "close_approach_date": "2168-05-14",
            "close_approach_date_full": "2168-May-14 02:06",
            "epoch_date_close_approach": 6259860360000,
            "relative_velocity": {
                "kilometers_per_second": "3.3091033242",
                "kilometers_per_hour": "11912.7719672318",
                "miles_per_hour": "7402.1332259725"
            },
            "miss_distance": {
                "astronomical": "1.9528893991",
                "lunar": "759.6739762499",
                "kilometers": "292148094.450939917",
                "miles": "181532408.1221961746"
            },
            "orbiting_body": "Juptr"
        }
    ],
    "orbital_data": {
        "orbit_id": "8",
        "orbit_determination_date": "2019-05-09 07:35:54",
        "first_observation_date": "2019-04-03",
        "last_observation_date": "2019-05-08",
        "data_arc_in_days": 35,
        "observations_used": 45,
        "orbit_uncertainty": "8",
        "minimum_orbit_intersection": ".077628",
        "jupiter_tisserand_invariant": "3.386",
        "epoch_osculation": "2458585.5",
        "eccentricity": ".5830018783748587",
        "semi_major_axis": "2.236061027425195",
        "inclination": "6.355186542882746",
        "ascending_node_longitude": "191.3139670720222",
        "orbital_period": "1221.304353856942",
        "perihelion_distance": ".9324332482754898",
        "perihelion_argument": "83.69782082192069",
        "aphelion_distance": "3.5396888065749",
        "perihelion_time": "2458649.737663413527",
        "mean_anomaly": "341.0648682649513",
        "mean_motion": ".2947668194771447",
        "equinox": "J2000",
        "orbit_class": {
            "orbit_class_type": "APO",
            "orbit_class_description": "Near-Earth asteroid orbits which cross the Earth’s orbit similar to that of 1862 Apollo",
            "orbit_class_range": "a (semi-major axis) > 1.0 AU; q (perihelion) < 1.017 AU"
        }
    },
    "is_sentry_object": false
}